NORAD_CAT_ID,OBJECT_NAME,OBJECT_TYPE,EPOCH,MEAN_MOTION,ECCENTRICITY,INCLINATION,RA_OF_ASC_NODE,ARG_OF_PERICENTER,MEAN_ANOMALY,BSTAR,MEAN_MOTION_DOT,MEAN_MOTION_DDOT,TLE_LINE0,TLE_LINE1,TLE_LINE2,SEMIMAJOR_AXIS,PERIOD,APOGEE,PERIGEE,DECAYED
52368.0,STARLINK-3834,PAYLOAD,2023-12-30 18:46:13,15.08840349,0.0001316,53.2158,180.0457,81.9226,278.1916,3.7256e-05,3.05e-06,0.0,0 STARLINK-3834,1 52368U 22045AP  23364.78209800  .00000305  00000-0  37256-4 0  9994,2 52368  53.2158 180.0457 0001316  81.9226 278.1916 15.08840349 95150,6917.879,95.438,540.655,538.834,0.0
52368.0,STARLINK-3834,PAYLOAD,2023-12-31 17:01:37,15.08838039,0.0001294,53.2159,175.8818,87.5188,272.5952,-5.7965e-06,-3.8e-06,0.0,0 STARLINK-3834,1 52368U 22045AP  23365.70946108 -.00000380  00000-0 -57965-5 0  9991,2 52368  53.2159 175.8818 0001294  87.5188 272.5952 15.08838039 95294,6917.886,95.438,540.647,538.856,0.0
52368.0,STARLINK-3834,PAYLOAD,2024-01-01 10:30:52,15.08835539,0.0001282,53.2159,172.6104,90.4796,269.6343,2.2118e-06,-2.53e-06,0.0,0 STARLINK-3834,1 52368U 22045AP  24001.43810383 -.00000253  00000-0  22118-5 0  9994,2 52368  53.2159 172.6104 0001282  90.4796 269.6343 15.08835539 95408,6917.894,95.438,540.646,538.872,0.0
52368.0,STARLINK-3834,PAYLOAD,2024-01-01 13:41:38,15.08836061,0.0001279,53.2158,172.016,89.7307,270.3831,6.4308e-06,-1.86e-06,0.0,0 STARLINK-3834,1 52368U 22045AP  24001.57058349 -.00000186  00000-0  64308-5 0  9997,2 52368  53.2158 172.0160 0001279  89.7307 270.3831 15.08836061 95422,6917.892,95.438,540.642,538.873,0.0
52368.0,STARLINK-3834,PAYLOAD,2024-01-01 16:52:24,15.0883641,0.0001273,53.2159,171.4213,88.7105,271.4033,7.772e-06,-1.64e-06,0.0,0 STARLINK-3834,1 52368U 22045AP  24001.70306351 -.00000164  00000-0  77720-5 0  9999,2 52368  53.2159 171.4213 0001273  88.7105 271.4033 15.08836410 95440,6917.891,95.438,540.637,538.876,0.0
52368.0,STARLINK-3834,PAYLOAD,2024-01-02 13:32:25,15.08836804,0.0001237,53.216,167.5559,85.3545,274.7588,4.0362e-05,3.55e-06,0.0,0 STARLINK-3834,1 52368U 22045AP  24002.56418456  .00000355  00000-0  40362-4 0  9996,2 52368  53.2160 167.5559 0001237  85.3545 274.7588 15.08836804 95574,6917.89,95.438,540.611,538.899,0.0
52368.0,STARLINK-3834,PAYLOAD,2024-01-02 18:18:34,15.08838575,0.0001259,53.216,166.6637,84.4886,275.625,5.4444e-05,5.79e-06,0.0,0 STARLINK-3834,1 52368U 22045AP  24002.76290350  .00000579  00000-0  54444-4 0  9993,2 52368  53.2160 166.6637 0001259  84.4886 275.6250 15.08838575 95600,6917.885,95.438,540.621,538.879,0.0
52368.0,STARLINK-3834,PAYLOAD,2024-01-03 14:58:35,15.08837096,0.0001292,53.2161,162.7983,78.5231,281.5906,4.5331e-05,4.34e-06,0.0,0 STARLINK-3834,1 52368U 22045AP  24003.62402648  .00000434  00000-0  45331-4 0  9999,2 52368  53.2161 162.7983 0001292  78.5231 281.5906 15.08837096 95732,6917.889,95.438,540.648,538.86,0.0
52368.0,STARLINK-3834,PAYLOAD,2024-01-03 18:09:22,15.08838933,0.0001302,53.2162,162.2033,80.4001,279.7138,5.7827e-05,6.33e-06,0.0,0 STARLINK-3834,1 52368U 22045AP  24003.75650509  .00000633  00000-0  57827-4 0  9998,2 52368  53.2162 162.2033 0001302  80.4001 279.7138 15.08838933 95752,6917.884,95.438,540.649,538.848,0.0
52368.0,STARLINK-3834,PAYLOAD,2024-01-04 13:13:59,15.08838654,0.0001357,53.2161,158.635,77.2395,282.8749,2.3358e-05,8.4e-07,0.0,0 STARLINK-3834,1 52368U 22045AP  24004.55138723  .00000084  00000-0  23358-4 0  9998,2 52368  53.2161 158.6350 0001357  77.2395 282.8749 15.08838654 95878,6917.885,95.438,540.688,538.811,0.0
52368.0,STARLINK-3834,PAYLOAD,2024-01-04 16:24:45,15.08840872,0.0001341,53.2162,158.0404,76.7319,283.3823,4.1874e-05,3.79e-06,0.0,0 STARLINK-3834,1 52368U 22045AP  24004.68386519  .00000379  00000-0  41874-4 0  9990,2 52368  53.2162 158.0404 0001341  76.7319 283.3823 15.08840872 95892,6917.878,95.437,540.67,538.815,0.0
52368.0,STARLINK-3834,PAYLOAD,2024-01-05 09:54:01,15.08825993,0.000244,53.2167,154.7752,32.6311,327.4832,-1.4269e-05,-5.15e-06,0.0,0 STARLINK-3834,1 52368U 22045AP  24005.41252296 -.00000515  00000-0 -14269-4 0  9998,2 52368  53.2167 154.7752 0002440  32.6311 327.4832 15.08825993 96001,6917.923,95.438,541.476,538.1,0.0
52368.0,STARLINK-3834,PAYLOAD,2024-01-05 14:40:11,15.08824028,0.0001275,53.2166,153.8761,90.5875,269.5263,-9.936e-05,-1.868e-05,0.0,0 STARLINK-3834,1 52368U 22045AP  24005.61124527 -.00001868  00000-0 -99360-4 0  9992,2 52368  53.2166 153.8761 0001275  90.5875 269.5263 15.08824028 96038,6917.929,95.439,540.676,538.912,0.0
52368.0,STARLINK-3834,PAYLOAD,2024-01-05 16:15:34,15.08822869,0.0001518,53.2169,153.5795,68.924,291.1914,-0.00010987,-2.035e-05,0.0,0 STARLINK-3834,1 52368U 22045AP  24005.67748686 -.00002035  00000-0 -10987-3 0  9990,2 52368  53.2169 153.5795 0001518  68.9240 291.1914 15.08822869 96046,6917.933,95.439,540.848,538.748,0.0
52368.0,STARLINK-3834,PAYLOAD,2024-01-06 12:55:35,15.08832803,0.0001364,53.218,149.7092,104.844,255.2703,-6.3799e-05,-1.303e-05,0.0,0 STARLINK-3834,1 52368U 22045AP  24006.53860561 -.00001303  00000-0 -63799-4 0  9990,2 52368  53.2180 149.7092 0001364 104.8440 255.2703 15.08832803 96177,6917.902,95.438,540.711,538.824,0.0
52368.0,STARLINK-3834,PAYLOAD,2024-01-06 16:06:21,15.08836133,0.0001358,53.2174,149.1163,89.4326,270.6821,2.7151e-06,-2.45e-06,0.0,0 STARLINK-3834,1 52368U 22045AP  24006.67108284 -.00000245  00000-0  27151-5 0  9998,2 52368  53.2174 149.1163 0001358  89.4326 270.6821 15.08836133 96191,6917.892,95.438,540.697,538.818,0.0
52368.0,STARLINK-3834,PAYLOAD,2024-01-07 09:35:35,15.088387,0.000132,53.2169,145.8463,103.8145,256.2994,0.00021755,3.176e-05,0.0,0 STARLINK-3834,1 52368U 22045AP  24007.39971510  .00003176  00000-0  21755-3 0  9995,2 52368  53.2169 145.8463 0001320 103.8145 256.2994 15.08838700 96306,6917.884,95.438,540.663,538.836,0.0
52368.0,STARLINK-3834,PAYLOAD,2024-01-07 14:21:44,15.08844823,0.0001334,53.2168,144.9551,90.6654,269.4491,0.00026915,3.999e-05,0.0,0 STARLINK-3834,1 52368U 22045AP  24007.59843100  .00003999  00000-0  26915-3 0  9996,2 52368  53.2168 144.9551 0001334  90.6654 269.4491 15.08844823 96330,6917.866,95.437,540.653,538.808,0.0
52368.0,STARLINK-3834,PAYLOAD,2024-01-07 15:57:07,15.08847715,0.0001339,53.2168,144.6576,92.6539,267.4606,0.00029233,4.369e-05,0.0,0 STARLINK-3834,1 52368U 22045AP  24007.66466889  .00004369  00000-0  29233-3 0  9997,2 52368  53.2168 144.6576 0001339  92.6539 267.4606 15.08847715 96343,6917.857,95.437,540.648,538.796,0.0
52368.0,STARLINK-3834,PAYLOAD,2024-01-08 11:01:45,15.08847881,0.0001259,53.2174,141.0886,94.9948,265.1187,5.4901e-05,5.86e-06,0.0,0 STARLINK-3834,1 52368U 22045AP  24008.45955509  .00000586  00000-0  54901-4 0  9995,2 52368  53.2174 141.0886 0001259  94.9948 265.1187 15.08847881 96461,6917.856,95.437,540.592,538.85,0.0
52368.0,STARLINK-3834,PAYLOAD,2024-01-08 14:12:31,15.08849811,0.0001303,53.217,140.494,101.2453,258.8686,6.9192e-05,8.14e-06,0.0,0 STARLINK-3834,1 52368U 22045AP  24008.59203280  .00000814  00000-0  69192-4 0  9994,2 52368  53.2170 140.4940 0001303 101.2453 258.8686 15.08849811 96484,6917.85,95.437,540.617,538.814,0.0
52368.0,STARLINK-3834,PAYLOAD,2024-01-08 15:47:54,15.08850373,0.0001284,53.2169,140.1963,101.7068,258.4069,7.4452e-05,8.98e-06,0.0,0 STARLINK-3834,1 52368U 22045AP  24008.65827187  .00000898  00000-0  74452-4 0  9996,2 52368  53.2169 140.1963 0001284 101.7068 258.4069 15.08850373 96496,6917.849,95.437,540.602,538.825,0.0
52368.0,STARLINK-3834,PAYLOAD,2024-01-09 12:27:55,15.08849613,0.0001352,53.2165,136.331,104.0698,256.0444,-6.7935e-05,-1.369e-05,0.0,0 STARLINK-3834,1 52368U 22045AP  24009.51939206 -.00001369  00000-0 -67935-4 0  9992,2 52368  53.2165 136.3310 0001352 104.0698 256.0444 15.08849613 96627,6917.851,95.437,540.651,538.781,0.0
52368.0,STARLINK-3834,PAYLOAD,2024-01-09 14:03:18,15.08849877,0.0001145,53.2168,136.0333,99.6116,260.5005,-6.2709e-05,-1.286e-05,0.0,0 STARLINK-3834,1 52368U 22045AP  24009.58563121 -.00001286  00000-0 -62709-4 0  9990,2 52368  53.2168 136.0333 0001145  99.6116 260.5005 15.08849877 96632,6917.85,95.437,540.507,538.923,0.0
52368.0,STARLINK-3834,PAYLOAD,2024-01-09 17:14:04,15.08853455,0.00013,53.2168,135.4398,92.0323,268.0818,-2.9417e-05,-7.56e-06,0.0,0 STARLINK-3834,1 52368U 22045AP  24009.71810767 -.00000756  00000-0 -29417-4 0  9996,2 52368  53.2168 135.4398 0001300  92.0323 268.0818 15.08853455 96650,6917.839,95.437,540.604,538.805,0.0
52368.0,STARLINK-3834,PAYLOAD,2024-01-10 07:32:33,15.08851299,0.0001282,53.2185,132.7687,67.5791,292.5337,-0.00013787,-2.482e-05,0.0,0 STARLINK-3834,1 52368U 22045AP  24010.31427364 -.00002482  00000-0 -13787-3 0  9991,2 52368  53.2185 132.7687 0001282  67.5791 292.5337 15.08851299 96747,6917.846,95.437,540.598,538.824,0.0
52368.0,STARLINK-3834,PAYLOAD,2024-01-10 17:04:51,15.08850072,0.0001242,53.2164,130.9803,93.7638,266.3496,7.7038e-05,9.39e-06,0.0,0 STARLINK-3834,1 52368U 22045AP  24010.71170510  .00000939  00000-0  77038-4 0  9996,2 52368  53.2164 130.9803 0001242  93.7638 266.3496 15.08850072 96801,6917.85,95.437,540.574,538.855,0.0
52368.0,STARLINK-3834,PAYLOAD,2024-01-11 12:09:29,15.08836603,0.0001337,53.2158,127.4141,111.7961,248.3174,2.1207e-05,5e-07,0.0,0 STARLINK-3834,1 52368U 22045AP  24011.50659457  .00000050  00000-0  21207-4 0  9997,2 52368  53.2158 127.4141 0001337 111.7961 248.3174 15.08836603 96925,6917.891,95.438,540.681,538.831,0.0
52368.0,STARLINK-3834,PAYLOAD,2024-01-11 13:44:52,15.0884335,0.0001444,53.2155,127.1156,78.3035,281.8119,7.0937e-05,8.41e-06,0.0,0 STARLINK-3834,1 52368U 22045AP  24011.57283066  .00000841  00000-0  70937-4 0  9995,2 52368  53.2155 127.1156 0001444  78.3035 281.8119 15.08843350 96933,6917.87,95.437,540.734,538.736,0.0
52368.0,STARLINK-3834,PAYLOAD,2024-01-11 15:20:15,15.08847488,0.000152,53.2163,126.8183,77.9109,282.2054,0.00010594,1.399e-05,0.0,0 STARLINK-3834,1 52368U 22045AP  24011.63906736  .00001399  00000-0  10594-3 0  9999,2 52368  53.2163 126.8183 0001520  77.9109 282.2054 15.08847488 96940,6917.858,95.437,540.774,538.671,0.0
